H1 CPF 01  gfz 2021 01 04 13  5042 terrasarx 
H2 0702601  6201 31698    2021 01 04 12 59 42 2021 01 09 00 00 42   120 1 1  0 0 0
H9
10 0 59220  23022.000000  0    2632159.547  -1083291.295  -6279919.253
10 0 59220  23142.000000  0    1764982.935  -1054297.397  -6581307.241
10 0 59220  23262.000000  0     868032.619   -991601.674  -6767865.048
10 0 59220  23382.000000  0     -42562.596   -895917.013  -6836382.464
10 0 59220  23502.000000  0    -950469.545   -768806.787  -6785680.812
10 0 59220  23622.000000  0   -1839436.608   -612659.923  -6616631.361
10 0 59220  23742.000000  0   -2693578.541   -430647.129  -6332141.397
10 0 59220  23862.000000  0   -3497653.528   -226659.889  -5937108.658
10 0 59220  23982.000000  0   -4237331.611     -5232.382  -5438347.415
10 0 59220  24102.000000  0   -4899451.485    228552.537  -4844481.504
10 0 59220  24222.000000  0   -5472258.601    469171.154  -4165807.150
10 0 59220  24342.000000  0   -5945623.213    710780.236  -3414125.676
10 0 59220  24462.000000  0   -6311231.106    947348.924  -2602546.230
10 0 59220  24582.000000  0   -6562742.364   1172798.159  -1745261.484
10 0 59220  24702.000000  0   -6695914.255   1381144.451   -857300.676
10 0 59220  24822.000000  0   -6708685.005   1566644.952     45738.238
10 0 59220  24942.000000  0   -6601211.610   1723938.428    947969.734
10 0 59220  25062.000000  0   -6375864.524   1848180.727   1833507.474
10 0 59220  25182.000000  0   -6037178.066   1935170.402   2686753.217
10 0 59220  25302.000000  0   -5591756.721   1981460.671   3492680.567
10 0 59220  25422.000000  0   -5048139.471   1984454.324   4237106.590
10 0 59220  25542.000000  0   -4416627.005   1942480.086   4906944.583
10 0 59220  25662.000000  0   -3709077.446   1854848.804   5490433.946
10 0 59220  25782.000000  0   -2938675.888   1721888.533   5977344.656
10 0 59220  25902.000000  0   -2119680.807   1544957.947   6359153.597
10 0 59220  26022.000000  0   -1267153.136   1326436.744   6629187.711
10 0 59220  26142.000000  0    -396675.581   1069694.180   6782733.241
10 0 59220  26262.000000  0     475932.350    779036.880   6817111.939
10 0 59220  26382.000000  0    1334900.756    459636.195   6731724.667
10 0 59220  26502.000000  0    2164792.902    117436.727   6528061.122
10 0 59220  26622.000000  0    2950781.637   -240953.336   6209676.472
10 0 59220  26742.000000  0    3678915.694   -608388.526   5782134.017
10 0 59220  26862.000000  0    4336370.481   -977326.518   5252913.105
10 0 59220  26982.000000  0    4911678.781  -1339981.235   4631284.512
10 0 59220  27102.000000  0    5394938.165  -1688484.733   3928153.750
10 0 59220  27222.000000  0    5777990.567  -2015055.131   3155873.280
10 0 59220  27342.000000  0    6054569.093  -2312167.760   2328026.148
10 0 59220  27462.000000  0    6220407.973  -2572724.275   1459185.056
10 0 59220  27582.000000  0    6273314.187  -2790215.710    564651.399
10 0 59220  27702.000000  0    6213197.130  -2958875.999   -339822.070
10 0 59220  27822.000000  0    6042055.976  -3073821.224  -1238317.286
10 0 59220  27942.000000  0    5763923.618  -3131170.958  -2115040.871
10 0 59220  28062.000000  0    5384769.716  -3128148.444  -2954608.494
10 0 59220  28182.000000  0    4912367.274  -3063157.741  -3742319.569
10 0 59220  28302.000000  0    4356125.296  -2935836.681  -4464415.858
10 0 59220  28422.000000  0    3726892.306  -2747084.354  -5108320.165
10 0 59220  28542.000000  0    3036735.329  -2499061.892  -5662848.830
10 0 59220  28662.000000  0    2298702.948  -2195168.637  -6118395.535
10 0 59220  28782.000000  0    1526576.678  -1839995.048  -6467088.081
10 0 59220  28902.000000  0     734612.344  -1439250.864  -6702914.609
10 0 59220  29022.000000  0     -62721.065   -999672.062  -6821816.234
10 0 59220  29142.000000  0    -851000.828   -528908.537  -6821748.757
10 0 59220  29262.000000  0   -1616105.085    -35393.810  -6702713.846
10 0 59220  29382.000000  0   -2344460.309    471802.607  -6466758.358
10 0 59220  29502.000000  0   -3023276.377    983137.190  -6117942.494
10 0 59220  29622.000000  0   -3640767.387   1488767.169  -5662278.096
10 0 59220  29742.000000  0   -4186356.992   1978735.554  -5107636.381
10 0 59220  29862.000000  0   -4650863.856   2443164.734  -4463623.598
10 0 59220  29982.000000  0   -5026662.492   2872454.569  -3741424.583
10 0 59220  30102.000000  0   -5307816.325   3257479.601  -2953617.832
10 0 59220  30222.000000  0   -5490181.472   3589783.538  -2113963.438
10 0 59220  30342.000000  0   -5571476.205   3861765.627  -1237165.284
10 0 59220  30462.000000  0   -5551314.736   4066853.157   -338611.955
10 0 59220  30582.000000  0   -5431203.207   4199656.471    565898.175
10 0 59220  30702.000000  0   -5214497.208   4256101.904   1460443.587
10 0 59220  30822.000000  0   -4906320.159   4233537.344   2329269.376
10 0 59220  30942.000000  0   -4513446.441   4130809.294   3157072.928
10 0 59220  31062.000000  0   -4044152.332   3948310.255   3929280.943
10 0 59220  31182.000000  0   -3508038.246   3687992.986   4632311.022
10 0 59220  31302.000000  0   -2915827.711   3353353.349   5253812.651
10 0 59220  31422.000000  0   -2279147.030   2949381.720   5782883.406
10 0 59220  31542.000000  0   -1610291.839   2482484.929   6210256.788
10 0 59220  31662.000000  0    -921984.940   1960379.992   6528458.775
10 0 59220  31782.000000  0    -227132.820   1391962.815   6731930.466
10 0 59220  31902.000000  0     461415.819    787154.600   6817120.118
10 0 59220  32022.000000  0    1131107.275    156728.024   6782540.759
10 0 59220  32142.000000  0    1769910.413   -487883.785   6628794.582
10 0 59220  32262.000000  0    2366532.056  -1134794.044   6358563.834
10 0 59220  32382.000000  0    2910616.852  -1771880.550   5976567.525
10 0 59220  32502.000000  0    3392929.636  -2387012.935   5489484.683
10 0 59220  32622.000000  0    3805515.642  -2968284.582   4905843.123
10 0 59220  32742.000000  0    4141836.300  -3504245.376   4235876.208
10 0 59220  32862.000000  0    4396877.847  -3984131.069   3491347.784
10 0 59220  32982.000000  0    4567230.387  -4398084.109   2685347.857
10 0 59220  33102.000000  0    4651135.594  -4737360.454   1832061.266
10 0 59220  33222.000000  0    4648500.396  -4994516.690    946513.794
10 0 59220  33342.000000  0    4560876.274  -5163573.693     44301.154
10 0 59220  33462.000000  0    4391404.944  -5240151.507   -858693.230
10 0 59220  33582.000000  0    4144733.133  -5221573.231  -1746586.811
10 0 59220  33702.000000  0    3826895.602  -5106933.563  -2603785.836
10 0 59220  33822.000000  0    3445171.896  -4897131.380  -3415265.377
10 0 59220  33942.000000  0    3007919.934  -4594865.543  -4166835.824
10 0 59220  34062.000000  0    2524391.406  -4204595.925  -4845390.849
10 0 59220  34182.000000  0    2004533.400  -3732468.874  -5439131.686
10 0 59220  34302.000000  0    1458782.600  -3186211.701  -5937762.858
10 0 59220  34422.000000  0     897856.176  -2575000.498  -6332660.453
10 0 59220  34542.000000  0     332542.330  -1909301.698  -6617011.095
10 0 59220  34662.000000  0    -226504.573  -1200690.223  -6785918.714
10 0 59220  34782.000000  0    -768959.907   -461648.771  -6836479.367
10 0 59220  34902.000000  0   -1285014.329    294648.321  -6767825.209
10 0 59220  35022.000000  0   -1765547.222   1054563.963  -6581137.088
10 0 59220  35142.000000  0   -2202284.027   1804238.072  -6279626.375
10 0 59220  35262.000000  0   -2587936.192   2529834.009  -5868486.023
10 0 59220  35382.000000  0   -2916322.978   3217790.087  -5354811.283
10 0 59220  35502.000000  0   -3182472.262   3855072.049  -4747488.957
10 0 59220  35622.000000  0   -3382699.570   4429422.391  -4057054.794
10 0 59220  35742.000000  0   -3514661.520   4929600.459  -3295519.237
10 0 59220  35862.000000  0   -3577382.287   5345607.516  -2476165.916
10 0 59220  35982.000000  0   -3571254.644   5668894.137  -1613325.602
10 0 59220  36102.000000  0   -3498013.201   5892544.779   -722126.228
10 0 59220  36222.000000  0   -3360679.108   6011431.625    181776.200
10 0 59220  36342.000000  0   -3163480.141   6022334.756   1082478.165
10 0 59220  36462.000000  0   -2911744.512   5924025.503   1964118.926
10 0 59220  36582.000000  0   -2611770.116   5717307.622   2811170.405
10 0 59220  36702.000000  0   -2270675.405   5405015.960   3608718.496
10 0 59220  36822.000000  0   -1896236.162   4991975.165   4342730.828
10 0 59220  36942.000000  0   -1496711.721   4484919.136   5000306.627
10 0 59220  37062.000000  0   -1080664.069   3892373.591   5569904.120
10 0 59220  37182.000000  0    -656775.306   3224503.829   6041540.138
10 0 59220  37302.000000  0    -233667.889   2492932.295   6406960.115
10 0 59220  37422.000000  0     180269.211   1710530.782   6659775.983
10 0 59220  37542.000000  0     577045.553    891190.492   6795572.573
10 0 59220  37662.000000  0     949222.309     49573.544   6811978.941
10 0 59220  37782.000000  0    1290050.533   -799148.139   6708707.367
10 0 59220  37902.000000  0    1593593.087  -1639565.967   6487558.940
10 0 59220  38022.000000  0    1854828.353  -2456313.671   6152394.424
10 0 59220  38142.000000  0    2069733.996  -3234349.234   5709071.628
10 0 59220  38262.000000  0    2235349.579  -3959234.527   5165348.257
10 0 59220  38382.000000  0    2349816.398  -4617406.731   4530751.438
10 0 59220  38502.000000  0    2412395.248  -5196437.907   3816416.692
10 0 59220  38622.000000  0    2423461.208  -5685278.093   3034895.505
10 0 59220  38742.000000  0    2384473.048  -6074475.154   2199935.142
10 0 59220  38862.000000  0    2297919.956  -6356364.996   1326233.842
10 0 59220  38982.000000  0    2167246.940  -6525227.883    429177.989
10 0 59220  39102.000000  0    1996759.671  -6577409.765   -475435.152
10 0 59220  39222.000000  0    1791511.513  -6511402.377  -1371685.957
10 0 59220  39342.000000  0    1557173.055  -6327877.145  -2243822.380
10 0 59220  39462.000000  0    1299890.494  -6029676.735  -3076543.945
99
